{
  "norad_id": 66272,
  "name": "STARLINK-35741",
  "history": [
    {
      "epoch": "2026-03-28T08:03:28.381824Z",
      "apogee_km": 476.2003026917746,
      "perigee_km": 474.18199755156456,
      "latitude_deg": 2.5253895380772976e-06,
      "longitude_deg": 157.84068304494767,
      "height_km": 476.01497425590105,
      "semi_major_axis_km": 6853.32815012167,
      "eccentricity": 0.00014725,
      "inclination_deg": 53.1585,
      "raan_deg": 104.4666,
      "arg_perigee_deg": 85.8051,
      "mean_anomaly_deg": 274.3118,
      "mean_motion_rev_day": 15.30208011
    },
    {
      "epoch": "2026-03-29T04:26:09.983328Z",
      "apogee_km": 476.2151219419002,
      "perigee_km": 474.08100897251643,
      "latitude_deg": -9.46185311442819e-06,
      "longitude_deg": -152.6113695173418,
      "height_km": 476.03706606643254,
      "semi_major_axis_km": 6853.285065457208,
      "eccentricity": 0.0001557,
      "inclination_deg": 53.1582,
      "raan_deg": 100.5248,
      "arg_perigee_deg": 89.544,
      "mean_anomaly_deg": 270.5739,
      "mean_motion_rev_day": 15.30222441
    },
    {
      "epoch": "2026-03-30T07:05:04.958592Z",
      "apogee_km": 476.2782423030294,
      "perigee_km": 474.3714721451115,
      "latitude_deg": -1.5933147758695706e-06,
      "longitude_deg": 161.4070542131806,
      "height_km": 476.19492572993914,
      "semi_major_axis_km": 6853.46185722407,
      "eccentricity": 0.00013911,
      "inclination_deg": 53.1586,
      "raan_deg": 95.3667,
      "arg_perigee_deg": 88.3365,
      "mean_anomaly_deg": 271.7795,
      "mean_motion_rev_day": 15.30163231
    },
    {
      "epoch": "2026-03-30T11:47:15.139680Z",
      "apogee_km": 476.1920164956591,
      "perigee_km": 474.54155571388856,
      "latitude_deg": -6.271913001321594e-07,
      "longitude_deg": 89.7606956731049,
      "height_km": 476.1860894004311,
      "semi_major_axis_km": 6853.503786104773,
      "eccentricity": 0.00012041,
      "inclination_deg": 53.1584,
      "raan_deg": 94.4559,
      "arg_perigee_deg": 84.529,
      "mean_anomaly_deg": 275.5848,
      "mean_motion_rev_day": 15.30149189
    },
    {
      "epoch": "2026-03-31T06:35:51.862848Z",
      "apogee_km": 475.88359202654647,
      "perigee_km": 474.0031067786713,
      "latitude_deg": -1.6225808355849795e-05,
      "longitude_deg": 163.19366432424906,
      "height_km": 475.4324300302946,
      "semi_major_axis_km": 6853.080349402609,
      "eccentricity": 0.0001372,
      "inclination_deg": 53.1577,
      "raan_deg": 90.8144,
      "arg_perigee_deg": 64.2259,
      "mean_anomaly_deg": 295.8883,
      "mean_motion_rev_day": 15.30291008
    }
  ]
}